{
  "links" : {
    "next" : "https://api.nasa.gov/neo/rest/v1/feed?start_date=2009-02-09&end_date=2009-02-09&detailed=true&api_key=t0TVs3DtDT2H8Oy2Zy8m2eVrNsAVKAexjcZXUckd",
    "prev" : "https://api.nasa.gov/neo/rest/v1/feed?start_date=2009-02-07&end_date=2009-02-07&detailed=true&api_key=t0TVs3DtDT2H8Oy2Zy8m2eVrNsAVKAexjcZXUckd",
    "self" : "https://api.nasa.gov/neo/rest/v1/feed?start_date=2009-02-08&end_date=2009-02-08&detailed=true&api_key=t0TVs3DtDT2H8Oy2Zy8m2eVrNsAVKAexjcZXUckd"
  },
  "element_count" : 8,
  "near_earth_objects" : {
    "2009-02-08" : [ {
      "links" : {
        "self" : "https://api.nasa.gov/neo/rest/v1/neo/3445599?api_key=t0TVs3DtDT2H8Oy2Zy8m2eVrNsAVKAexjcZXUckd"
      },
      "neo_reference_id" : "3445599",
      "name" : "(2009 CP)",
      "nasa_jpl_url" : "http://ssd.jpl.nasa.gov/sbdb.cgi?sstr=3445599",
      "absolute_magnitude_h" : 26.8,
      "estimated_diameter" : {
        "kilometers" : {
          "estimated_diameter_min" : 0.0116025908,
          "estimated_diameter_max" : 0.0259441818
        },
        "meters" : {
          "estimated_diameter_min" : 11.6025908209,
          "estimated_diameter_max" : 25.9441817907
        },
        "miles" : {
          "estimated_diameter_min" : 0.0072095135,
          "estimated_diameter_max" : 0.0161209622
        },
        "feet" : {
          "estimated_diameter_min" : 38.066244069,
          "estimated_diameter_max" : 85.1187093863
        }
      },
      "is_potentially_hazardous_asteroid" : false,
      "close_approach_data" : [ {
        "close_approach_date" : "2009-02-08",
        "epoch_date_close_approach" : 1234080000000,
        "relative_velocity" : {
          "kilometers_per_second" : "9.6432687293",
          "kilometers_per_hour" : "34715.7674255148",
          "miles_per_hour" : "21571.0278205928"
        },
        "miss_distance" : {
          "astronomical" : "0.0198137359",
          "lunar" : "7.7075428963",
          "kilometers" : "2964092.5",
          "miles" : "1841801.75"
        },
        "orbiting_body" : "Earth"
      } ],
      "orbital_data" : {
        "orbit_id" : "9",
        "orbit_determination_date" : "2017-04-06 09:01:27",
        "orbit_uncertainty" : "8",
        "minimum_orbit_intersection" : ".0186686",
        "jupiter_tisserand_invariant" : "3.452",
        "epoch_osculation" : "2454865.5",
        "eccentricity" : ".553068482979383",
        "semi_major_axis" : "2.183206851158663",
        "inclination" : "8.00309801479518",
        "ascending_node_longitude" : "135.5106822567995",
        "orbital_period" : "1178.258971274131",
        "perihelion_distance" : ".9757439499581455",
        "perihelion_argument" : "26.68433217480069",
        "aphelion_distance" : "3.39066975235918",
        "perihelion_time" : "2454888.648016653222",
        "mean_anomaly" : "352.9274580560599",
        "mean_motion" : ".3055355475975776",
        "equinox" : "J2000"
      }
    }, {
      "links" : {
        "self" : "https://api.nasa.gov/neo/rest/v1/neo/3445627?api_key=t0TVs3DtDT2H8Oy2Zy8m2eVrNsAVKAexjcZXUckd"
      },
      "neo_reference_id" : "3445627",
      "name" : "(2009 CY1)",
      "nasa_jpl_url" : "http://ssd.jpl.nasa.gov/sbdb.cgi?sstr=3445627",
      "absolute_magnitude_h" : 22.9,
      "estimated_diameter" : {
        "kilometers" : {
          "estimated_diameter_min" : 0.0699125232,
          "estimated_diameter_max" : 0.1563291544
        },
        "meters" : {
          "estimated_diameter_min" : 69.9125232246,
          "estimated_diameter_max" : 156.3291544087
        },
        "miles" : {
          "estimated_diameter_min" : 0.0434416145,
          "estimated_diameter_max" : 0.097138403
        },
        "feet" : {
          "estimated_diameter_min" : 229.3718026961,
          "estimated_diameter_max" : 512.8909429502
        }
      },
      "is_potentially_hazardous_asteroid" : false,
      "close_approach_data" : [ {
        "close_approach_date" : "2009-02-08",
        "epoch_date_close_approach" : 1234080000000,
        "relative_velocity" : {
          "kilometers_per_second" : "10.2041234989",
          "kilometers_per_hour" : "36734.8445961926",
          "miles_per_hour" : "22825.6038547843"
        },
        "miss_distance" : {
          "astronomical" : "0.2470588711",
          "lunar" : "96.1058959961",
          "kilometers" : "36959480",
          "miles" : "22965556"
        },
        "orbiting_body" : "Earth"
      } ],
      "orbital_data" : {
        "orbit_id" : "6",
        "orbit_determination_date" : "2017-04-06 09:01:24",
        "orbit_uncertainty" : "9",
        "minimum_orbit_intersection" : ".246563",
        "jupiter_tisserand_invariant" : "4.626",
        "epoch_osculation" : "2454866.5",
        "eccentricity" : ".1370040384771272",
        "semi_major_axis" : "1.425742483906838",
        "inclination" : "19.76555990100357",
        "ascending_node_longitude" : "140.1465085565983",
        "orbital_period" : "621.8133803234684",
        "perihelion_distance" : "1.230410005783191",
        "perihelion_argument" : "348.4557606290212",
        "aphelion_distance" : "1.621074962030486",
        "perihelion_time" : "2454855.989669446220",
        "mean_anomaly" : "6.084975201711649",
        "mean_motion" : ".5789518389146392",
        "equinox" : "J2000"
      }
    }, {
      "links" : {
        "self" : "https://api.nasa.gov/neo/rest/v1/neo/2206359?api_key=t0TVs3DtDT2H8Oy2Zy8m2eVrNsAVKAexjcZXUckd"
      },
      "neo_reference_id" : "2206359",
      "name" : "206359 (2003 QM47)",
      "nasa_jpl_url" : "http://ssd.jpl.nasa.gov/sbdb.cgi?sstr=2206359",
      "absolute_magnitude_h" : 18.2,
      "estimated_diameter" : {
        "kilometers" : {
          "estimated_diameter_min" : 0.6089126221,
          "estimated_diameter_max" : 1.3615700154
        },
        "meters" : {
          "estimated_diameter_min" : 608.9126221057,
          "estimated_diameter_max" : 1361.5700153859
        },
        "miles" : {
          "estimated_diameter_min" : 0.3783606449,
          "estimated_diameter_max" : 0.846040122
        },
        "feet" : {
          "estimated_diameter_min" : 1997.7448871092,
          "estimated_diameter_max" : 4467.0933692788
        }
      },
      "is_potentially_hazardous_asteroid" : false,
      "close_approach_data" : [ {
        "close_approach_date" : "2009-02-08",
        "epoch_date_close_approach" : 1234080000000,
        "relative_velocity" : {
          "kilometers_per_second" : "17.0654111852",
          "kilometers_per_hour" : "61435.480266607",
          "miles_per_hour" : "38173.6182801036"
        },
        "miss_distance" : {
          "astronomical" : "0.3769029248",
          "lunar" : "146.6152496338",
          "kilometers" : "56383876",
          "miles" : "35035316"
        },
        "orbiting_body" : "Earth"
      } ],
      "orbital_data" : {
        "orbit_id" : "49",
        "orbit_determination_date" : "2017-04-06 09:25:30",
        "orbit_uncertainty" : "0",
        "minimum_orbit_intersection" : ".378174",
        "jupiter_tisserand_invariant" : "3.840",
        "epoch_osculation" : "2458000.5",
        "eccentricity" : ".3034990210368126",
        "semi_major_axis" : "1.792318677752531",
        "inclination" : "33.10571092372756",
        "ascending_node_longitude" : "149.1682039912131",
        "orbital_period" : "876.4381485797527",
        "perihelion_distance" : "1.248351713668644",
        "perihelion_argument" : "302.9771999310115",
        "aphelion_distance" : "2.336285641836419",
        "perihelion_time" : "2458316.629203071746",
        "mean_anomaly" : "230.1488367544827",
        "mean_motion" : ".410753457712186",
        "equinox" : "J2000"
      }
    } ]
  }
}